{
    "type": "FeatureCollection",
    "generator": "JOSM",
    "features": [
        {
            "type": "Feature",
            "properties": null,
            "geometry": {
                "type": "LineString",
                "coordinates": [
                    [
                        -6.37017206618,
                        42.06705367620
                    ],
                    [
                        -6.35010314941,
                        41.99624690424
                    ],
                    [
                        -6.30066467285,
                        41.92272025391
                    ],
                    [
                        -6.29517150879,
                        41.84092448999
                    ],
                    [
                        -6.20178771973,
                        41.69342831798
                    ],
                    [
                        -6.20728088379,
                        41.52914610101
                    ],
                    [
                        -6.37207580566,
                        41.40977995187
                    ],
                    [
                        -6.38855529785,
                        41.32733044545
                    ],
                    [
                        -6.43799377441,
                        41.21172564295
                    ],
                    [
                        -6.42700744629,
                        41.05036366189
                    ],
                    [
                        -6.45447326660,
                        40.96746002109
                    ],
                    [
                        -6.53687072754,
                        40.90936541846
                    ],
                    [
                        -6.58630920410,
                        40.83875329383
                    ],
                    [
                        -6.58630920410,
                        40.75974475289
                    ],
                    [
                        -6.53137756348,
                        40.68897320287
                    ],
                    [
                        -6.50940490723,
                        40.60561622871
                    ],
                    [
                        -6.41602111816,
                        40.56807162710
                    ],
                    [
                        -6.20728088379,
                        40.63063425288
                    ],
                    [
                        -6.10291076660,
                        40.64730773037
                    ],
                    [
                        -5.91614318848,
                        40.74726112440
                    ],
                    [
                        -5.93262268066,
                        40.66814372063
                    ],
                    [
                        -5.88867736816,
                        40.59310370340
                    ],
                    [
                        -5.96558166504,
                        40.53050595088
                    ],
                    [
                        -6.06445861816,
                        40.48874159876
                    ],
                    [
                        -6.08643127441,
                        40.40931768627
                    ],
                    [
                        -6.16333557129,
                        40.34654830775
                    ],
                    [
                        -6.21826721191,
                        40.18307434523
                    ],
                    [
                        -6.28967834473,
                        40.11589385354
                    ],
                    [
                        -6.25671936035,
                        40.03603073560
                    ],
                    [
                        -6.19629455566,
                        39.96449488944
                    ],
                    [
                        -6.11389709473,
                        39.90974044810
                    ],
                    [
                        -6.09741760254,
                        39.82541732217
                    ],
                    [
                        -5.98755432129,
                        39.83385429842
                    ],
                    [
                        -5.89417053223,
                        39.88023914387
                    ],
                    [
                        -5.79529357910,
                        39.90974044810
                    ],
                    [
                        -5.69092346191,
                        39.92237997665
                    ],
                    [
                        -5.61951232910,
                        39.98975139269
                    ],
                    [
                        -5.57007385254,
                        40.06966872701
                    ],
                    [
                        -5.24048400879,
                        40.09908834926
                    ],
                    [
                        -5.14160705566,
                        40.14109432458
                    ],
                    [
                        -5.07019592285,
                        40.07387230855
                    ],
                    [
                        -5.11963439941,
                        39.99816815271
                    ],
                    [
                        -5.21301818848,
                        39.94765203515
                    ],
                    [
                        -5.31738830566,
                        39.90974044810
                    ],
                    [
                        -5.38879943848,
                        39.84229023845
                    ],
                    [
                        -5.33936096191,
                        39.76632947892
                    ],
                    [
                        -5.36133361816,
                        39.68183023844
                    ],
                    [
                        -5.30090881348,
                        39.61415630869
                    ],
                    [
                        -5.02075744629,
                        39.58029450817
                    ],
                    [
                        -4.91638732910,
                        39.57606061920
                    ],
                    [
                        -4.79004043579,
                        39.60039877435
                    ],
                    [
                        -4.38766616821,
                        39.62578930588
                    ],
                    [
                        -4.14734436035,
                        39.64800155335
                    ],
                    [
                        -4.19128967285,
                        39.72831763500
                    ],
                    [
                        -4.16382385254,
                        39.81275991500
                    ],
                    [
                        -4.21875549316,
                        39.98133359543
                    ],
                    [
                        -4.21875549316,
                        40.06966872701
                    ],
                    [
                        -4.30664611816,
                        40.12849525693
                    ],
                    [
                        -4.41101623535,
                        40.15788944777
                    ],
                    [
                        -4.50440002441,
                        40.20405462052
                    ],
                    [
                        -4.72412658691,
                        40.40513488046
                    ],
                    [
                        -4.95483947754,
                        40.44695123994
                    ],
                    [
                        -5.07019592285,
                        40.44277077392
                    ],
                    [
                        -5.18555236816,
                        40.47202857570
                    ],
                    [
                        -5.19104553223,
                        40.55972552016
                    ],
                    [
                        -5.10315490723,
                        40.61395661110
                    ],
                    [
                        -4.99878479004,
                        40.63063425288
                    ],
                    [
                        -4.89990783691,
                        40.66814372063
                    ],
                    [
                        -4.74060607910,
                        40.78886410349
                    ],
                    [
                        -4.80103088379,
                        40.85952938356
                    ],
                    [
                        -4.88342834473,
                        40.92181856304
                    ],
                    [
                        -4.89441467285,
                        41.00477956767
                    ],
                    [
                        -4.94934631348,
                        41.17038861282
                    ],
                    [
                        -5.02075744629,
                        41.24064603327
                    ],
                    [
                        -5.02625061035,
                        41.32320522759
                    ],
                    [
                        -5.01526428223,
                        41.40565995821
                    ],
                    [
                        -4.98230529785,
                        41.48801018675
                    ],
                    [
                        -4.80103088379,
                        41.59080095942
                    ],
                    [
                        -4.72412658691,
                        41.64829241730
                    ],
                    [
                        -4.67468811035,
                        41.72623454833
                    ],
                    [
                        -4.64172912598,
                        41.80408223903
                    ],
                    [
                        -4.58130432129,
                        41.87365536024
                    ],
                    [
                        -4.48242736816,
                        41.91045756462
                    ],
                    [
                        -4.52637268066,
                        41.98808146607
                    ],
                    [
                        -4.61426330566,
                        42.04113808898
                    ],
                    [
                        -4.66919494629,
                        42.11452802733
                    ],
                    [
                        -4.70764709473,
                        42.19190309435
                    ],
                    [
                        -4.92737365723,
                        42.21224923146
                    ],
                    [
                        -5.01526428223,
                        42.26918355734
                    ],
                    [
                        -4.96582580566,
                        42.34636939152
                    ],
                    [
                        -4.97681213379,
                        42.42751538107
                    ],
                    [
                        -5.01526428223,
                        42.50855646496
                    ],
                    [
                        -4.99603546143,
                        42.60162196603
                    ],
                    [
                        -4.84222686768,
                        42.64810367712
                    ],
                    [
                        -4.80102813721,
                        42.62183566996
                    ],
                    [
                        -4.74884307861,
                        42.61981459478
                    ],
                    [
                        -4.64172637939,
                        42.63194006178
                    ],
                    [
                        -4.54010284424,
                        42.60566523163
                    ],
                    [
                        -4.48517120361,
                        42.60364363163
                    ],
                    [
                        -4.38080108643,
                        42.63396074332
                    ],
                    [
                        -4.25720489502,
                        42.71271614645
                    ],
                    [
                        -4.20776641846,
                        42.78532485303
                    ],
                    [
                        -4.16931427002,
                        42.81555337647
                    ],
                    [
                        -4.12262237549,
                        42.83771157387
                    ],
                    [
                        -4.06769073486,
                        42.83368340149
                    ],
                    [
                        -4.09240997314,
                        42.87194043735
                    ],
                    [
                        -4.10339630127,
                        42.95441434143
                    ],
                    [
                        -4.19678009033,
                        43.00063186315
                    ],
                    [
                        -4.22149932861,
                        43.03878535244
                    ],
                    [
                        -4.25995147705,
                        43.07089621708
                    ],
                    [
                        -4.31488311768,
                        43.07892130600
                    ],
                    [
                        -4.54010284424,
                        43.07089621708
                    ],
                    [
                        -4.72137725830,
                        42.96848422103
                    ],
                    [
                        -4.80377471924,
                        42.91017377366
                    ],
                    [
                        -4.85595977783,
                        42.89407841553
                    ],
                    [
                        -5.02075469971,
                        42.86590142828
                    ],
                    [
                        -5.07019317627,
                        42.84576713091
                    ],
                    [
                        -5.09765899658,
                        42.81152375997
                    ],
                    [
                        -5.15259063721,
                        42.80144857005
                    ],
                    [
                        -5.21026885986,
                        42.81152375997
                    ],
                    [
                        -5.60165473938,
                        42.82763913983
                    ],
                    [
                        -5.60714790344,
                        42.81907756455
                    ],
                    [
                        -5.57556221008,
                        42.81353708993
                    ],
                    [
                        -5.56182929993,
                        42.81504817770
                    ],
                    [
                        -5.54740974426,
                        42.81404078996
                    ],
                    [
                        -5.53505012512,
                        42.80900360511
                    ],
                    [
                        -5.52269050598,
                        42.80346222795
                    ],
                    [
                        -5.50895759583,
                        42.79943182370
                    ],
                    [
                        -5.48011848450,
                        42.79237798448
                    ],
                    [
                        -5.46638557434,
                        42.78935466440
                    ],
                    [
                        -5.45265266418,
                        42.78683511819
                    ],
                    [
                        -5.43823310852,
                        42.78381152736
                    ],
                    [
                        -5.42450019836,
                        42.78028381808
                    ],
                    [
                        -5.41145393372,
                        42.77625190420
                    ],
                    [
                        -5.39978096008,
                        42.77070759396
                    ],
                    [
                        -5.39978096008,
                        42.76012162340
                    ],
                    [
                        -5.40321418762,
                        42.75003806491
                    ],
                    [
                        -5.39291450500,
                        42.74297859774
                    ],
                    [
                        -5.39154121399,
                        42.73289225007
                    ],
                    [
                        -5.40390083313,
                        42.72835285836
                    ],
                    [
                        -5.42999336243,
                        42.72129092202
                    ],
                    [
                        -5.45608589172,
                        42.71523719390
                    ],
                    [
                        -5.46089241028,
                        42.70514633460
                    ],
                    [
                        -5.44715950012,
                        42.70110953154
                    ],
                    [
                        -5.43891975403,
                        42.69202576497
                    ],
                    [
                        -5.42930671692,
                        42.68395019029
                    ],
                    [
                        -5.41694709778,
                        42.67890242298
                    ],
                    [
                        -5.40184089661,
                        42.67890242298
                    ],
                    [
                        -5.38742134094,
                        42.67789282030
                    ],
                    [
                        -5.37368843079,
                        42.67536874185
                    ],
                    [
                        -5.36338874817,
                        42.66678610826
                    ],
                    [
                        -5.36476203918,
                        42.65618239524
                    ],
                    [
                        -5.36682197571,
                        42.64608193964
                    ],
                    [
                        -5.35514900208,
                        42.64052598992
                    ],
                    [
                        -5.34141609192,
                        42.64103109676
                    ],
                    [
                        -5.31395027161,
                        42.64810216198
                    ],
                    [
                        -5.30090400696,
                        42.65214240983
                    ],
                    [
                        -5.27069160461,
                        42.66072706511
                    ],
                    [
                        -5.25901863098,
                        42.66628121055
                    ],
                    [
                        -5.23361274719,
                        42.67587356575
                    ],
                    [
                        -5.22125312805,
                        42.68142635789
                    ],
                    [
                        -5.20889350891,
                        42.68647392015
                    ],
                    [
                        -5.19447395325,
                        42.68849283023
                    ],
                    [
                        -5.13679573059,
                        42.69253045353
                    ],
                    [
                        -5.12237617493,
                        42.69404449459
                    ],
                    [
                        -5.11756965637,
                        42.70413715845
                    ],
                    [
                        -5.10383674622,
                        42.70716463771
                    ],
                    [
                        -5.07499763489,
                        42.71019196932
                    ],
                    [
                        -5.06126472473,
                        42.71271463288
                    ],
                    [
                        -5.04684516907,
                        42.71473268990
                    ],
                    [
                        -5.03311225891,
                        42.71574169380
                    ],
                    [
                        -5.02006599426,
                        42.71120104705
                    ],
                    [
                        -5.02349922180,
                        42.70110953154
                    ],
                    [
                        -5.02624580383,
                        42.69051167469
                    ],
                    [
                        -5.02006599426,
                        42.68092157911
                    ],
                    [
                        -5.02555915833,
                        42.67082514229
                    ],
                    [
                        -5.03585884094,
                        42.66375666050
                    ],
                    [
                        -5.03929206848,
                        42.65315243079
                    ],
                    [
                        -5.03036567688,
                        42.64456672983
                    ],
                    [
                        -5.01800605774,
                        42.63800039420
                    ],
                    [
                        -5.01457283020,
                        42.62789698623
                    ],
                    [
                        -5.02487251282,
                        42.62132889152
                    ],
                    [
                        -5.03723213196,
                        42.61627603944
                    ],
                    [
                        -5.05165168762,
                        42.61273879902
                    ],
                    [
                        -5.06469795227,
                        42.61273879902
                    ],
                    [
                        -5.07774421692,
                        42.61172812200
                    ],
                    [
                        -5.08941719055,
                        42.60667449088
                    ],
                    [
                        -5.10040351868,
                        42.60060959233
                    ],
                    [
                        -5.11207649231,
                        42.59555505919
                    ],
                    [
                        -5.12374946594,
                        42.58948907824
                    ],
                    [
                        -5.13610908508,
                        42.58595031670
                    ],
                    [
                        -5.14915534973,
                        42.58392807706
                    ],
                    [
                        -5.16151496887,
                        42.57988340097
                    ],
                    [
                        -5.17318794250,
                        42.57533282675
                    ],
                    [
                        -5.18417427063,
                        42.56774779842
                    ],
                    [
                        -5.16700813293,
                        42.55965608483
                    ],
                    [
                        -5.17181465149,
                        42.55004581185
                    ],
                    [
                        -5.17524787903,
                        42.53942220943
                    ],
                    [
                        -5.18692085266,
                        42.53486868355
                    ],
                    [
                        -5.18760749817,
                        42.52474854840
                    ],
                    [
                        -5.17662117004,
                        42.51715737101
                    ],
                    [
                        -5.16906806946,
                        42.50855292171
                    ],
                    [
                        -5.19447395325,
                        42.50045353437
                    ],
                    [
                        -5.20683357239,
                        42.49690972245
                    ],
                    [
                        -5.21919319153,
                        42.49235309774
                    ],
                    [
                        -5.23155281067,
                        42.48728979201
                    ],
                    [
                        -5.24253913879,
                        42.48121328412
                    ],
                    [
                        -5.25077888489,
                        42.47311035551
                    ],
                    [
                        -5.23635932922,
                        42.47614907670
                    ],
                    [
                        -5.20820686340,
                        42.47716195097
                    ],
                    [
                        -5.19447395325,
                        42.47868123164
                    ],
                    [
                        -5.18211433411,
                        42.48323885233
                    ],
                    [
                        -5.17250129700,
                        42.49134046938
                    ],
                    [
                        -5.15876838684,
                        42.49235309774
                    ],
                    [
                        -5.14640876770,
                        42.48728979201
                    ],
                    [
                        -5.14709541321,
                        42.47716195097
                    ],
                    [
                        -5.13336250305,
                        42.47614907670
                    ],
                    [
                        -5.10452339172,
                        42.47614907670
                    ],
                    [
                        -5.07499763489,
                        42.47412327897
                    ],
                    [
                        -5.06538459778,
                        42.46601943231
                    ],
                    [
                        -5.07705757141,
                        42.46095399536
                    ],
                    [
                        -5.09010383606,
                        42.45740794564
                    ],
                    [
                        -5.10383674622,
                        42.45538154136
                    ],
                    [
                        -5.12992927551,
                        42.45335507150
                    ],
                    [
                        -5.13679573059,
                        42.44474184308
                    ],
                    [
                        -5.12443611145,
                        42.43866120407
                    ],
                    [
                        -5.11001655579,
                        42.43511389213
                    ],
                    [
                        -5.09559700012,
                        42.43460711688
                    ],
                    [
                        -5.06813117981,
                        42.43257997494
                    ],
                    [
                        -5.05508491516,
                        42.42852549435
                    ],
                    [
                        -5.04135200500,
                        42.42497760870
                    ],
                    [
                        -5.02761909485,
                        42.42193640403
                    ],
                    [
                        -5.01594612122,
                        42.41433274697
                    ],
                    [
                        -5.02624580383,
                        42.40672816793
                    ],
                    [
                        -5.03860542297,
                        42.40317904886
                    ],
                    [
                        -5.05233833313,
                        42.40470012448
                    ],
                    [
                        -5.06538459778,
                        42.40571415440
                    ],
                    [
                        -5.07843086243,
                        42.40419310337
                    ],
                    [
                        -5.09147712708,
                        42.40165793637
                    ],
                    [
                        -5.13198921204,
                        42.39861560074
                    ],
                    [
                        -5.16014167786,
                        42.39760145609
                    ],
                    [
                        -5.17250129700,
                        42.39303760232
                    ],
                    [
                        -5.18280097961,
                        42.38543044184
                    ],
                    [
                        -5.19378730774,
                        42.37985127156
                    ],
                    [
                        -5.20683357239,
                        42.37680787882
                    ],
                    [
                        -5.21987983704,
                        42.37477886838
                    ],
                    [
                        -5.22949287415,
                        42.36767681558
                    ],
                    [
                        -5.23155281067,
                        42.35752963287
                    ],
                    [
                        -5.24322578430,
                        42.35245542697
                    ],
                    [
                        -5.28579780579,
                        42.35245542697
                    ],
                    [
                        -5.29884407043,
                        42.35600741412
                    ],
                    [
                        -5.31257698059,
                        42.35752963287
                    ],
                    [
                        -5.32562324524,
                        42.35347030092
                    ],
                    [
                        -5.31463691711,
                        42.34636583909
                    ],
                    [
                        -5.30296394348,
                        42.34027566128
                    ],
                    [
                        -5.30914375305,
                        42.33113928843
                    ],
                    [
                        -5.30708381653,
                        42.32098620634
                    ],
                    [
                        -5.30365058899,
                        42.31083148566
                    ],
                    [
                        -5.29403755188,
                        42.30321436986
                    ],
                    [
                        -5.29884407043,
                        42.29356470009
                    ],
                    [
                        -5.31051704407,
                        42.28899328777
                    ],
                    [
                        -5.32356330872,
                        42.28746940993
                    ],
                    [
                        -5.33729621887,
                        42.28746940993
                    ],
                    [
                        -5.35102912903,
                        42.28543751547
                    ],
                    [
                        -5.36407539368,
                        42.28137352995
                    ],
                    [
                        -5.37643501282,
                        42.27629317941
                    ],
                    [
                        -5.38879463196,
                        42.27273669033
                    ],
                    [
                        -5.41557380676,
                        42.27578512183
                    ],
                    [
                        -5.42930671692,
                        42.27832536878
                    ],
                    [
                        -5.45848880768,
                        42.27807109467
                    ],
                    [
                        -5.46363864899,
                        42.27451470592
                    ],
                    [
                        -5.46569858551,
                        42.26943380242
                    ],
                    [
                        -5.46981845856,
                        42.26511471241
                    ],
                    [
                        -5.47565494537,
                        42.26206576483
                    ],
                    [
                        -5.48080478668,
                        42.25800027203
                    ],
                    [
                        -5.48286472321,
                        42.24808953520
                    ],
                    [
                        -5.48698459625,
                        42.24376898306
                    ],
                    [
                        -5.49728427887,
                        42.23690632149
                    ],
                    [
                        -5.49865756989,
                        42.23182238728
                    ],
                    [
                        -5.49453769684,
                        42.22724649634
                    ],
                    [
                        -5.49144779205,
                        42.22267027369
                    ],
                    [
                        -5.48904453278,
                        42.21249970244
                    ],
                    [
                        -5.49625431061,
                        42.21122826586
                    ],
                    [
                        -5.50346408844,
                        42.21249970244
                    ],
                    [
                        -5.51788364410,
                        42.21377111343
                    ],
                    [
                        -5.53195987701,
                        42.21631385861
                    ],
                    [
                        -5.56663547516,
                        42.22546689361
                    ],
                    [
                        -5.57281528473,
                        42.22775494505
                    ],
                    [
                        -5.57796512604,
                        42.23131397133
                    ],
                    [
                        -5.58071170807,
                        42.23614375747
                    ],
                    [
                        -5.58723484039,
                        42.23919395828
                    ],
                    [
                        -5.61332736969,
                        42.24910609270
                    ],
                    [
                        -5.61882053375,
                        42.25291803742
                    ],
                    [
                        -5.62362705231,
                        42.25723796295
                    ],
                    [
                        -5.62946353912,
                        42.26003305119
                    ],
                    [
                        -5.64285312653,
                        42.26435248934
                    ],
                    [
                        -5.67100559235,
                        42.27146621297
                    ],
                    [
                        -5.68473850250,
                        42.27578486780
                    ],
                    [
                        -5.69709812164,
                        42.28086525932
                    ],
                    [
                        -5.70430789948,
                        42.28238929690
                    ],
                    [
                        -5.71117435455,
                        42.28289730124
                    ],
                    [
                        -5.72422061920,
                        42.26409841293
                    ],
                    [
                        -5.72525058746,
                        42.25901666980
                    ],
                    [
                        -5.72353397369,
                        42.25393451711
                    ],
                    [
                        -5.72593723297,
                        42.24910609270
                    ],
                    [
                        -5.72250400543,
                        42.24478561018
                    ],
                    [
                        -5.71804080963,
                        42.24097317400
                    ],
                    [
                        -5.70808444977,
                        42.23385601011
                    ],
                    [
                        -5.70259128571,
                        42.23105976182
                    ],
                    [
                        -5.69778476715,
                        42.22775494505
                    ],
                    [
                        -5.69503818512,
                        42.22292451698
                    ],
                    [
                        -5.68576847076,
                        42.21478822379
                    ],
                    [
                        -5.68096195221,
                        42.21122826586
                    ],
                    [
                        -5.66448246002,
                        42.20232749319
                    ],
                    [
                        -5.65555606842,
                        42.19189927884
                    ],
                    [
                        -5.65280948639,
                        42.18732049482
                    ],
                    [
                        -5.64765964508,
                        42.18401338898
                    ],
                    [
                        -5.64147983551,
                        42.18223256802
                    ],
                    [
                        -5.64456974030,
                        42.17765308382
                    ],
                    [
                        -5.66413913727,
                        42.16238574122
                    ],
                    [
                        -5.68027530670,
                        42.15245999252
                    ],
                    [
                        -5.68439517975,
                        42.14838744013
                    ],
                    [
                        -5.68714176178,
                        42.14380550549
                    ],
                    [
                        -5.69503818512,
                        42.13514983528
                    ],
                    [
                        -5.70087467194,
                        42.13209461038
                    ],
                    [
                        -5.71426425934,
                        42.12802074791
                    ],
                    [
                        -5.71941410065,
                        42.12445590333
                    ],
                    [
                        -5.72113071442,
                        42.11426952780
                    ],
                    [
                        -5.72422061920,
                        42.10968512459
                    ],
                    [
                        -5.71769748688,
                        42.10892102515
                    ],
                    [
                        -5.70430789948,
                        42.10943042580
                    ],
                    [
                        -5.69778476715,
                        42.10790221157
                    ],
                    [
                        -5.69297824860,
                        42.10433623510
                    ],
                    [
                        -5.69778476715,
                        42.10077005806
                    ],
                    [
                        -5.70156131744,
                        42.09643943056
                    ],
                    [
                        -5.70362125397,
                        42.09134419605
                    ],
                    [
                        -5.70808444977,
                        42.08701292488
                    ],
                    [
                        -5.71838413239,
                        42.07962360328
                    ],
                    [
                        -5.72971378326,
                        42.07325280775
                    ],
                    [
                        -5.74310337067,
                        42.06892030149
                    ],
                    [
                        -5.76404605865,
                        42.06433261960
                    ],
                    [
                        -5.77022586823,
                        42.06152887301
                    ],
                    [
                        -5.77537570953,
                        42.05821519471
                    ],
                    [
                        -5.79082523346,
                        42.04419387313
                    ],
                    [
                        -5.81039463043,
                        42.02889435611
                    ],
                    [
                        -5.81691776276,
                        42.02710917254
                    ],
                    [
                        -5.82721744537,
                        42.03501460490
                    ],
                    [
                        -5.82756076813,
                        42.04062431527
                    ],
                    [
                        -5.81966434479,
                        42.06127398082
                    ],
                    [
                        -5.81863437653,
                        42.08777728834
                    ],
                    [
                        -5.83305393219,
                        42.08650334412
                    ],
                    [
                        -5.85536991119,
                        42.08573896531
                    ],
                    [
                        -5.87013278961,
                        42.08446498016
                    ],
                    [
                        -5.88317905426,
                        42.08064287122
                    ],
                    [
                        -5.90446506500,
                        42.07682053204
                    ],
                    [
                        -5.91133152008,
                        42.07478185701
                    ],
                    [
                        -5.91716800690,
                        42.07223342112
                    ],
                    [
                        -5.92403446198,
                        42.07070431047
                    ],
                    [
                        -5.96763645172,
                        42.07070431047
                    ],
                    [
                        -5.96935306549,
                        42.07580120271
                    ],
                    [
                        -5.95905338287,
                        42.08905120697
                    ],
                    [
                        -5.96420322418,
                        42.09261804305
                    ],
                    [
                        -5.96729312897,
                        42.09745842834
                    ],
                    [
                        -5.97175632477,
                        42.10178898625
                    ],
                    [
                        -5.99338565826,
                        42.09720368043
                    ],
                    [
                        -6.02119480133,
                        42.09261804305
                    ],
                    [
                        -6.04522739410,
                        42.09210850732
                    ],
                    [
                        -6.03561435699,
                        42.09949637479
                    ],
                    [
                        -6.02943454742,
                        42.10204371574
                    ],
                    [
                        -6.01638828278,
                        42.10153425574
                    ],
                    [
                        -6.00986515045,
                        42.10229844421
                    ],
                    [
                        -5.99681888580,
                        42.10510038980
                    ],
                    [
                        -5.97862277985,
                        42.11274143024
                    ],
                    [
                        -5.96591983795,
                        42.11681627519
                    ],
                    [
                        -5.96042667389,
                        42.11961757913
                    ],
                    [
                        -5.95733676910,
                        42.12420126390
                    ],
                    [
                        -5.95665012360,
                        42.12929385808
                    ],
                    [
                        -5.95733676910,
                        42.13438604287
                    ],
                    [
                        -5.95665012360,
                        42.13973239630
                    ],
                    [
                        -5.95253025055,
                        42.14406006611
                    ],
                    [
                        -5.95802341461,
                        42.14787835265
                    ],
                    [
                        -5.98754917145,
                        42.15271451834
                    ],
                    [
                        -5.99407230377,
                        42.15475068809
                    ],
                    [
                        -5.99853549957,
                        42.15882283107
                    ],
                    [
                        -6.00540195465,
                        42.15755031454
                    ],
                    [
                        -6.01055179596,
                        42.15373261141
                    ],
                    [
                        -6.01776157379,
                        42.14456918429
                    ],
                    [
                        -6.02222476959,
                        42.14024154928
                    ],
                    [
                        -6.03904758453,
                        42.13056694266
                    ],
                    [
                        -6.04557071686,
                        42.12140016261
                    ],
                    [
                        -6.05140720367,
                        42.11808961051
                    ],
                    [
                        -6.06925998688,
                        42.10968512459
                    ],
                    [
                        -6.07440982819,
                        42.10560982116
                    ],
                    [
                        -6.07990299225,
                        42.10229844421
                    ],
                    [
                        -6.07990299225,
                        42.09720368043
                    ],
                    [
                        -6.07784305573,
                        42.09261804305
                    ],
                    [
                        -6.07131992340,
                        42.09083465008
                    ],
                    [
                        -6.06514011383,
                        42.08828685886
                    ],
                    [
                        -6.06170688629,
                        42.08395537894
                    ],
                    [
                        -6.06033359528,
                        42.07885914159
                    ],
                    [
                        -6.05655704498,
                        42.07452701802
                    ],
                    [
                        -6.05037723541,
                        42.07197857190
                    ],
                    [
                        -6.04419742584,
                        42.07044945511
                    ],
                    [
                        -5.97793613434,
                        42.05847009918
                    ],
                    [
                        -5.97587619781,
                        42.05388166216
                    ],
                    [
                        -5.96900974274,
                        42.05209718045
                    ],
                    [
                        -5.93536411285,
                        42.04572362225
                    ],
                    [
                        -5.92266117096,
                        42.04189918038
                    ],
                    [
                        -5.91682468414,
                        42.03909444337
                    ],
                    [
                        -5.91648136139,
                        42.03399460436
                    ],
                    [
                        -5.92231784821,
                        42.03067948955
                    ],
                    [
                        -5.92334781647,
                        42.02557897529
                    ],
                    [
                        -5.92540775299,
                        42.02073310770
                    ],
                    [
                        -5.92884098053,
                        42.01614194509
                    ],
                    [
                        -5.95733676910,
                        42.01843756783
                    ],
                    [
                        -5.97141300201,
                        42.02022299489
                    ],
                    [
                        -5.99956546783,
                        42.02532393884
                    ],
                    [
                        -6.02703128815,
                        42.03220956402
                    ],
                    [
                        -6.03424106598,
                        42.03348459795
                    ],
                    [
                        -6.04831729889,
                        42.03450460668
                    ],
                    [
                        -6.09741245270,
                        42.04266408717
                    ],
                    [
                        -6.10427890778,
                        42.04342898475
                    ],
                    [
                        -6.11114536285,
                        42.04317401992
                    ],
                    [
                        -6.11732517242,
                        42.04087929034
                    ],
                    [
                        -6.13105808258,
                        42.04189918038
                    ],
                    [
                        -6.15097080231,
                        42.04801817687
                    ],
                    [
                        -6.15818058014,
                        42.04954783391
                    ],
                    [
                        -6.17260013580,
                        42.04929289363
                    ],
                    [
                        -6.18667636871,
                        42.04827312227
                    ],
                    [
                        -6.19354282379,
                        42.04852806664
                    ],
                    [
                        -6.22203861237,
                        42.05286196447
                    ],
                    [
                        -6.25705753326,
                        42.05617592211
                    ],
                    [
                        -6.28520999908,
                        42.06152887301
                    ],
                    [
                        -6.29207645416,
                        42.06229354345
                    ],
                    [
                        -6.30615268707,
                        42.06331308971
                    ],
                    [
                        -6.32709537506,
                        42.06586188373
                    ],
                    [
                        -6.35044132233,
                        42.06560700893
                    ],
                    [
                        -6.37017206618,
                        42.06705367620
                    ]
                ]
            }
        }
    ]
}