{
"type": "FeatureCollection",
"generator": "JOSM",
"name": "towns",
"features": [
{"type":"Feature","properties":{"name":"Thomund'un Sarayı","place":"town"},"geometry":{"type":"Point","coordinates":[7.085894271805229,53.447898951747732]}},
{"type":"Feature","properties":{"name":"Güney Geçidi","place":"town"},"geometry":{"type":"Point","coordinates":[7.233359254045231,52.617359851387732]}},
{"type":"Feature","properties":{"name":"Ghaski","place":"town"},"geometry":{"type":"Point","coordinates":[2.278646080685229,50.690400041307733]}},
{"type":"Feature","properties":{"name":"Aytaşı Düzlüğü","place":"town"},"geometry":{"type":"Point","coordinates":[-7.20720381549477,40.845199526217733]}},
{"type":"Feature","properties":{"name":"Denizkıran","place":"town"},"geometry":{"type":"Point","coordinates":[-6.168969297214769,36.428731575627729]}},
{"type":"Feature","properties":{"name":"Verea","place":"town"},"geometry":{"type":"Point","coordinates":[5.596379594295227,50.83082327511773]}},
{"type":"Feature","properties":{"name":"Lorthalyon","place":"town"},"geometry":{"type":"Point","coordinates":[-2.13473910587477,41.815949229057729]}},
{"type":"Feature","properties":{"name":"Koyunkapanı","place":"town"},"geometry":{"type":"Point","coordinates":[0.64011223988523,36.13683450899773]}},
{"type":"Feature","properties":{"name":"Ceeva","place":"town"},"geometry":{"type":"Point","coordinates":[4.202294667835229,50.353925719667728]}},
{"type":"Feature","properties":{"name":"Demirözü","place":"town"},"geometry":{"type":"Point","coordinates":[-6.46979789471477,42.177501584757728]}},
{"type":"Feature","properties":{"name":"Asmara","place":"town"},"geometry":null},
{"type":"Feature","properties":{"name":"Börtüpazar","place":"town"},"geometry":{"type":"Point","coordinates":[-1.65648530442477,45.946954092687733]}},
{"type":"Feature","properties":{"name":"Son Adım Hanı","place":"town"},"geometry":{"type":"Point","coordinates":[16.055924201485233,38.668347567767732]}},
{"type":"Feature","properties":{"name":"Baltaviran","place":"town"},"geometry":{"type":"Point","coordinates":[-4.004444455144769,38.307300218427734]}},
{"type":"Feature","properties":{"name":"Merdehel","place":"town"},"geometry":{"type":"Point","coordinates":[7.58492782801523,39.274180590157734]}},
{"type":"Feature","properties":{"name":"Altınkonak","place":"town"},"geometry":{"type":"Point","coordinates":[-4.666766888244769,40.589507674277733]}},
{"type":"Feature","properties":{"name":"Methyqor","place":"town"},"geometry":null},
{"type":"Feature","properties":{"name":"Ocytus","place":"town"},"geometry":null},
{"type":"Feature","properties":{"name":"El-Baluron","place":"town"},"geometry":null},
{"type":"Feature","properties":{"name":"Uğursuztepe","place":"town"},"geometry":{"type":"Point","coordinates":[6.993499554935232,51.582222230387728]}},
{"type":"Feature","properties":{"name":"Tecton","place":"town"},"geometry":{"type":"Point","coordinates":[-3.001626995794769,42.020805283857733]}},
{"type":"Feature","properties":{"name":"Derintepe","place":"town"},"geometry":{"type":"Point","coordinates":[14.44795028116523,52.615023505657732]}},
{"type":"Feature","properties":{"name":"Kervan Çıkmazı","place":"town"},"geometry":{"type":"Point","coordinates":[4.68298239041523,43.644239577017728]}},
{"type":"Feature","properties":{"name":"Huldrengorod","place":"town"},"geometry":{"type":"Point","coordinates":[4.855235880115231,53.01744778154773]}},
{"type":"Feature","properties":{"name":"Edna","place":"town"},"geometry":{"type":"Point","coordinates":[-9.897582883894769,41.950076040607733]}},
{"type":"Feature","properties":{"name":"Alaster'ın Çatısı","place":"town"},"geometry":{"type":"Point","coordinates":[0.573981209905231,41.730050068247728]}},
{"type":"Feature","properties":{"name":"Worg Meydanı","place":"town"},"geometry":{"type":"Point","coordinates":[6.31181204255523,48.956800643417729]}},
{"type":"Feature","properties":{"name":"Daleran","place":"town"},"geometry":{"type":"Point","coordinates":[9.356910586945231,41.359526189907733]}},
{"type":"Feature","properties":{"name":"Andrekion","place":"town"},"geometry":{"type":"Point","coordinates":[7.595941223905227,48.011179993457731]}},
{"type":"Feature","properties":{"name":"Bartho'nun Dirseği","place":"town"},"geometry":{"type":"Point","coordinates":[17.316150446755231,53.366077018897734]}},
{"type":"Feature","properties":{"name":"Çamgeçidi","place":"town"},"geometry":{"type":"Point","coordinates":[-5.95618549918477,37.550294759097731]}},
{"type":"Feature","properties":{"name":"Feuyn","place":"town"},"geometry":{"type":"Point","coordinates":[17.229903776845227,40.959823486677728]}},
{"type":"Feature","properties":{"name":"Demyn'in Parmağı","place":"town"},"geometry":{"type":"Point","coordinates":[-2.34619463625477,45.325655938887728]}},
{"type":"Feature","properties":{"name":"Melisa Bahçeleri","place":"town"},"geometry":{"type":"Point","coordinates":[-8.21583153108477,40.243611256407732]}},
{"type":"Feature","properties":{"name":"Adon","place":"town"},"geometry":null},
{"type":"Feature","properties":{"name":"Èryn","place":"town"},"geometry":{"type":"Point","coordinates":[6.70811917003523,40.356044904657729]}},
{"type":"Feature","properties":{"name":"Bıçaktepeleri","place":"town"},"geometry":{"type":"Point","coordinates":[10.32155835894523,52.91840232269773]}},
{"type":"Feature","properties":{"name":"Nëna","place":"town"},"geometry":{"type":"Point","coordinates":[15.967883070705231,40.211547107967732]}},
{"type":"Feature","properties":{"name":"Ulutaşlı","place":"town"},"geometry":{"type":"Point","coordinates":[-2.837802252124769,37.117947822957731]}},
{"type":"Feature","properties":{"name":"Isalmor","place":"town"},"geometry":{"type":"Point","coordinates":[3.14340482341523,41.917398948957732]}},
{"type":"Feature","properties":{"name":"Söğütağıt","place":"town"},"geometry":{"type":"Point","coordinates":[3.71301106013523,52.262917887987733]}},
{"type":"Feature","properties":{"name":"Ghaskaria","place":"town"},"geometry":{"type":"Point","coordinates":[2.376324850045231,50.57586391076773]}},
{"type":"Feature","properties":{"name":"Ammalûn","place":"town"},"geometry":{"type":"Point","coordinates":[-0.50612114443477,41.715763703567731]}},
{"type":"Feature","properties":{"name":"Dikköy","place":"town"},"geometry":{"type":"Point","coordinates":[1.860463905565229,53.405729356837732]}},
{"type":"Feature","properties":{"name":"Asherah","place":"town"},"geometry":null},
{"type":"Feature","properties":{"name":"Akçaoba","place":"town"},"geometry":{"type":"Point","coordinates":[-9.364805623494769,42.005347574837728]}},
{"type":"Feature","properties":{"name":"Demir Eldiven","place":"town"},"geometry":{"type":"Point","coordinates":[25.711906208835231,60.11069417276773]}},
{"type":"Feature","properties":{"name":"Asfuran","place":"town"},"geometry":{"type":"Point","coordinates":[-0.15223299328477,41.610484948137731]}},
{"type":"Feature","properties":{"name":"Botarys Tepesi","place":"town"},"geometry":null},
{"type":"Feature","properties":{"name":"Eresa Kalesi","place":"town"},"geometry":{"type":"Point","coordinates":[-3.36191713904477,41.930068127037728]}},
{"type":"Feature","properties":{"name":"Devin Merdiveni","place":"town"},"geometry":{"type":"Point","coordinates":[20.546396077245227,57.94825187798773]}},
{"type":"Feature","properties":{"name":"Meşedalı","place":"town"},"geometry":{"type":"Point","coordinates":[17.552755497445226,47.191212877367732]}},
{"type":"Feature","properties":{"name":"Cëlebron","place":"town"},"geometry":{"type":"Point","coordinates":[22.955551021005228,54.763082495517729]}},
{"type":"Feature","properties":{"name":"Akikkale","place":"town"},"geometry":{"type":"Point","coordinates":[10.69231235392523,45.723701627327728]}},
{"type":"Feature","properties":{"name":"Frodolindë","place":"town"},"geometry":{"type":"Point","coordinates":[25.031282179175228,55.823005736227728]}},
{"type":"Feature","properties":{"name":"Bakırburgaz","place":"town"},"geometry":{"type":"Point","coordinates":[-6.433109198654769,36.890347694657734]}},
{"type":"Feature","properties":{"name":"Nanmoth","place":"town"},"geometry":{"type":"Point","coordinates":[17.068481585235226,55.886100407257729]}},
{"type":"Feature","properties":{"name":"Soğuksu","place":"town"},"geometry":{"type":"Point","coordinates":[0.02744715202523,53.237763213777733]}},
{"type":"Feature","properties":{"name":"Drunn'un Evi","place":"town"},"geometry":null},
{"type":"Feature","properties":{"name":"Balmangır","place":"town"},"geometry":{"type":"Point","coordinates":[-8.582961130374768,43.274337494357731]}},
{"type":"Feature","properties":{"name":"Kızılağaç","place":"town"},"geometry":{"type":"Point","coordinates":[-0.91540702878477,41.430662911177734]}},
{"type":"Feature","properties":{"name":"Yazkonağı","place":"town"},"geometry":{"type":"Point","coordinates":[-1.61612608783477,37.241276777497731]}},
{"type":"Feature","properties":{"name":"Likopea","place":"town"},"geometry":{"type":"Point","coordinates":[6.333913180385229,48.000939691017734]}},
{"type":"Feature","properties":{"name":"Kuzgunyeli","place":"town"},"geometry":{"type":"Point","coordinates":[15.652469127835229,55.02387896549773]}},
{"type":"Feature","properties":{"name":"Kehribaryalı","place":"town"},"geometry":{"type":"Point","coordinates":[-4.19521246745477,34.043917906387726]}},
{"type":"Feature","properties":{"name":"Calium","place":"town"},"geometry":{"type":"Point","coordinates":[3.69979650816523,45.44079726239773]}},
{"type":"Feature","properties":{"name":"Gılgançörek","place":"town"},"geometry":{"type":"Point","coordinates":[5.747205342955231,48.228577832287733]}},
{"type":"Feature","properties":{"name":"Tilkidivan","place":"town"},"geometry":{"type":"Point","coordinates":[8.74733089613523,54.134579683677728]}},
{"type":"Feature","properties":{"name":"Halaster'in Kulesi","place":"town"},"geometry":{"type":"Point","coordinates":[4.826499684685231,48.102234579317731]}},
{"type":"Feature","properties":{"name":"Erebor","place":"town"},"geometry":{"type":"Point","coordinates":[12.16711685809523,39.54903825412773]}},
{"type":"Feature","properties":{"name":"Selbükü","place":"town"},"geometry":{"type":"Point","coordinates":[1.854451031835231,45.341734805877728]}},
{"type":"Feature","properties":{"name":"Altunyayla","place":"town"},"geometry":{"type":"Point","coordinates":[-8.531599523954771,42.810441091217733]}},
{"type":"Feature","properties":{"name":"Fundakoru","place":"town"},"geometry":{"type":"Point","coordinates":[-0.73931376116477,34.395635674357735]}},
{"type":"Feature","properties":{"name":"Lharin","place":"town"},"geometry":{"type":"Point","coordinates":[8.828619778035231,40.713168205547731]}},
{"type":"Feature","properties":{"name":"Mirun's Geçidi","place":"town"},"geometry":{"type":"Point","coordinates":[-1.551326598304771,41.539031854367728]}},
{"type":"Feature","properties":{"name":"Al Banilah","place":"town"},"geometry":{"type":"Point","coordinates":[2.31346126024523,40.064221132647731]}},
{"type":"Feature","properties":{"name":"Büyük Fondip Hanı","place":"town"},"geometry":{"type":"Point","coordinates":[0.53738902703523,33.546758050217733]}},
{"type":"Feature","properties":{"name":"Yakutçeper","place":"town"},"geometry":{"type":"Point","coordinates":[-6.68625037892477,39.721035683327734]}},
{"type":"Feature","properties":{"name":"Ephera","place":"town"},"geometry":{"type":"Point","coordinates":[3.02475091496523,46.569761221217732]}},
{"type":"Feature","properties":{"name":"Ağlayan Taşlar","place":"town"},"geometry":{"type":"Point","coordinates":[11.991019921795225,33.515407868667729]}},
{"type":"Feature","properties":{"name":"Doğancı","place":"town"},"geometry":{"type":"Point","coordinates":[6.451311137925229,45.140448476507729]}},
{"type":"Feature","properties":{"name":"Kuzey Geçidi","place":"town"},"geometry":{"type":"Point","coordinates":[5.875406095345232,53.533776386037729]}},
{"type":"Feature","properties":{"name":"Brennen Kalesi","place":"town"},"geometry":{"type":"Point","coordinates":[17.714170351685226,49.416319592157734]}},
{"type":"Feature","properties":{"name":"Hendek","place":"town"},"geometry":{"type":"Point","coordinates":[3.46500059309523,44.519055333847732]}},
{"type":"Feature","properties":{"name":"Tuzova","place":"town"},"geometry":{"type":"Point","coordinates":[-2.052834541164771,40.147550122177734]}},
{"type":"Feature","properties":{"name":"Yıldızgözü","place":"town"},"geometry":{"type":"Point","coordinates":[-6.616549010324769,43.627705863387732]}},
{"type":"Feature","properties":{"name":"Opus","place":"town"},"geometry":{"type":"Point","coordinates":[31.266304412145235,60.890746474527731]}},
{"type":"Feature","properties":{"name":"Dokuzçam","place":"town"},"geometry":{"type":"Point","coordinates":[2.07823721970523,42.645778283757728]}},
{"type":"Feature","properties":{"name":"Damator","place":"town"},"geometry":null},
{"type":"Feature","properties":{"name":"Meirethys","place":"town"},"geometry":{"type":"Point","coordinates":[-3.27230113723477,42.103701239247734]}},
{"type":"Feature","properties":{"name":"Mor Menekşe","place":"town"},"geometry":{"type":"Point","coordinates":[5.739578682985231,37.789501728287732]}},
{"type":"Feature","properties":{"name":"Tayfgörü","place":"town"},"geometry":{"type":"Point","coordinates":[-5.600319271714771,41.268359845147728]}},
{"type":"Feature","properties":{"name":"Gywin","place":"town"},"geometry":{"type":"Point","coordinates":[-10.48700581477477,42.736877273177733]}},
{"type":"Feature","properties":{"name":"Byblos","place":"town"},"geometry":{"type":"Point","coordinates":[-5.124956817104771,43.160485683317731]}},
{"type":"Feature","properties":{"name":"Hash","place":"town"},"geometry":null},
{"type":"Feature","properties":{"name":"Asyrelos","place":"town"},"geometry":null},
{"type":"Feature","properties":{"name":"Iskhara","place":"town"},"geometry":{"type":"Point","coordinates":[0.791465999785229,41.303641542697733]}},
{"type":"Feature","properties":{"name":"Durgrim'in Derini","place":"town"},"geometry":{"type":"Point","coordinates":[5.17163383379523,54.140914330477734]}},
{"type":"Feature","properties":{"name":"Yenikale","place":"town"},"geometry":{"type":"Point","coordinates":[-1.161207168034769,44.29056512007773]}},
{"type":"Feature","properties":{"name":"Çifte Kuleler","place":"town"},"geometry":{"type":"Point","coordinates":[-8.549942954814771,42.01411269837773]}},
{"type":"Feature","properties":{"name":"Miliopolis","place":"town"},"geometry":{"type":"Point","coordinates":[6.928240340415227,47.076822943777728]}},
{"type":"Feature","properties":{"name":"Eskifener","place":"town"},"geometry":{"type":"Point","coordinates":[3.056176449715229,49.534099577107732]}},
{"type":"Feature","properties":{"name":"Mumçam","place":"town"},"geometry":{"type":"Point","coordinates":[-0.94292034074477,44.590962046917731]}},
{"type":"Feature","properties":{"name":"Gümüşçam","place":"town"},"geometry":{"type":"Point","coordinates":[12.754459954705229,54.908263938137729]}},
{"type":"Feature","properties":{"name":"Cadıkapısı","place":"town"},"geometry":{"type":"Point","coordinates":[-0.27705930337477,36.74986575253773]}},
{"type":"Feature","properties":{"name":"Morn","place":"town"},"geometry":{"type":"Point","coordinates":[15.028692073045224,42.399431222097732]}},
{"type":"Feature","properties":{"name":"Mermerbahçe","place":"town"},"geometry":{"type":"Point","coordinates":[-0.429304276524769,44.838626331367728]}},
{"type":"Feature","properties":{"name":"Ashzûn Vadisi","place":"town"},"geometry":{"type":"Point","coordinates":[2.92211225287523,41.273805543367729]}},
{"type":"Feature","properties":{"name":"Phargos","place":"town"},"geometry":null},
{"type":"Feature","properties":{"name":"Afasrah","place":"town"},"geometry":{"type":"Point","coordinates":[1.021590036845231,39.817541097957729]}},
{"type":"Feature","properties":{"name":"Sonköz","place":"town"},"geometry":{"type":"Point","coordinates":[9.79085188340523,55.333065061117729]}},
{"type":"Feature","properties":{"name":"Batıksuyu","place":"town"},"geometry":{"type":"Point","coordinates":[-2.155426623954769,33.64702861355773]}},
{"type":"Feature","properties":{"name":"Altınova","place":"town"},"geometry":{"type":"Point","coordinates":[2.32648399892523,40.830939475677731]}},
{"type":"Feature","properties":{"name":"Ounamir","place":"town"},"geometry":{"type":"Point","coordinates":[5.153345040455232,41.60129272375773]}},
{"type":"Feature","properties":{"name":"Tharnia","place":"town"},"geometry":{"type":"Point","coordinates":[3.19793599299523,50.00611583520773]}},
{"type":"Feature","properties":{"name":"Solesmos","place":"town"},"geometry":{"type":"Point","coordinates":[5.380054775405231,46.275004080837732]}},
{"type":"Feature","properties":{"name":"Elifçiçek","place":"town"},"geometry":{"type":"Point","coordinates":[-7.14117633318477,38.932301043147731]}},
{"type":"Feature","properties":{"name":"Corydonos","place":"town"},"geometry":null},
{"type":"Feature","properties":{"name":"Ayışığı","place":"town"},"geometry":{"type":"Point","coordinates":[-7.331948427014769,42.814965691497733]}},
{"type":"Feature","properties":{"name":"Xorasar'ın Sarayı","place":"town"},"geometry":{"type":"Point","coordinates":[3.553041723875229,39.209708011857728]}},
{"type":"Feature","properties":{"name":"Meldorn'un Kazanı","place":"town"},"geometry":{"type":"Point","coordinates":[7.20705315218523,41.960512718567728]}},
{"type":"Feature","properties":{"name":"Kaldereth","place":"town"},"geometry":null},
{"type":"Feature","properties":{"name":"Tepenoktası","place":"town"},"geometry":{"type":"Point","coordinates":[-6.708262495964769,43.030292937927733]}},
{"type":"Feature","properties":{"name":"Tyrethon","place":"town"},"geometry":null},
{"type":"Feature","properties":{"name":"Arcas","place":"town"},"geometry":{"type":"Point","coordinates":[-3.51005499344477,42.121250759277729]}},
{"type":"Feature","properties":{"name":"Safirçatal","place":"town"},"geometry":{"type":"Point","coordinates":[-3.483487349894769,34.680986890107732]}},
{"type":"Feature","properties":{"name":"Gaearon","place":"town"},"geometry":{"type":"Point","coordinates":[27.061982720505231,59.416968361217734]}},
{"type":"Feature","properties":{"name":"Bakırtepe","place":"town"},"geometry":{"type":"Point","coordinates":[12.53398547539523,48.093039896337729]}},
{"type":"Feature","properties":{"name":"Denizkızı Burnu","place":"town"},"geometry":{"type":"Point","coordinates":[0.87532996881523,52.201213703067729]}},
{"type":"Feature","properties":{"name":"Ilunia","place":"town"},"geometry":null},
{"type":"Feature","properties":{"name":"Taşparmaklar","place":"town"},"geometry":{"type":"Point","coordinates":[1.68578982302523,52.680737693007728]}},
{"type":"Feature","properties":{"name":"Mürverçapa","place":"town"},"geometry":{"type":"Point","coordinates":[-10.257714534004768,42.490508410577732]}},
{"type":"Feature","properties":{"name":"Draugluin","place":"town"},"geometry":{"type":"Point","coordinates":[24.053924841255231,57.098310448637733]}},
{"type":"Feature","properties":{"name":"Thalgrimmor","place":"town"},"geometry":{"type":"Point","coordinates":[2.45574619379523,54.175898360117728]}},
{"type":"Feature","properties":{"name":"Haedelos","place":"town"},"geometry":{"type":"Point","coordinates":[6.832854499915227,48.718279848827734]}},
{"type":"Feature","properties":{"name":"Rhodurion","place":"town"},"geometry":{"type":"Point","coordinates":[4.763715498345231,47.050793519427728]}},
{"type":"Feature","properties":{"name":"Kaer Sûlen","place":"town"},"geometry":{"type":"Point","coordinates":[-0.035187459224771,41.394488275427733]}},
{"type":"Feature","properties":{"name":"Kanyongözü","place":"town"},"geometry":{"type":"Point","coordinates":[6.44912814031523,50.097540281817729]}},
{"type":"Feature","properties":{"name":"Aceidonia","place":"town"},"geometry":{"type":"Point","coordinates":[7.977484585895231,49.020701083747731]}},
{"type":"Feature","properties":{"name":"Hisarcık","place":"town"},"geometry":{"type":"Point","coordinates":[-0.53202748936477,43.898328085387732]}},
{"type":"Feature","properties":{"name":"Dikenyolu","place":"town"},"geometry":{"type":"Point","coordinates":[-10.281151296684767,43.270518342397729]}},
{"type":"Feature","properties":{"name":"Tetnes","place":"town"},"geometry":{"type":"Point","coordinates":[7.69132706439523,46.385708621257734]}},
{"type":"Feature","properties":{"name":"Kalakonak","place":"town"},"geometry":{"type":"Point","coordinates":[0.87490815495523,35.451852425677728]}},
{"type":"Feature","properties":{"name":"Denizışığı","place":"town"},"geometry":{"type":"Point","coordinates":[-1.08233041531477,44.837275636517731]}},
{"type":"Feature","properties":{"name":"Kurt İni","place":"town"},"geometry":{"type":"Point","coordinates":[12.62923707845523,51.584465650277728]}},
{"type":"Feature","properties":{"name":"Gürsu","place":"town"},"geometry":{"type":"Point","coordinates":[4.684430664235229,48.886122119907732]}},
{"type":"Feature","properties":{"name":"Abu Barya","place":"town"},"geometry":{"type":"Point","coordinates":[1.874976294985229,38.890473271477731]}},
{"type":"Feature","properties":{"name":"Royne'un Ağıtı","place":"town"},"geometry":{"type":"Point","coordinates":[-0.42013439543477,45.250565447827732]}},
{"type":"Feature","properties":{"name":"Azelith Ormanı","place":"town"},"geometry":{"type":"Point","coordinates":[4.355953650795229,41.643711547957729]}},
{"type":"Feature","properties":{"name":"Yoron","place":"town"},"geometry":null},
{"type":"Feature","properties":{"name":"Hagshib-en","place":"town"},"geometry":{"type":"Point","coordinates":[-0.739401181204769,39.333087485217732]}},
{"type":"Feature","properties":{"name":"Kızılca","place":"town"},"geometry":{"type":"Point","coordinates":[-7.99535056076477,41.18861183448773]}},
{"type":"Feature","properties":{"name":"Tepegöz Mağaraları","place":"town"},"geometry":{"type":"Point","coordinates":[5.938133115245227,52.350593677307728]}},
{"type":"Feature","properties":{"name":"Lahk","place":"town"},"geometry":{"type":"Point","coordinates":[3.176623236265229,50.84540139392773]}},
{"type":"Feature","properties":{"name":"Meşekalkan","place":"town"},"geometry":{"type":"Point","coordinates":[0.163183037385229,46.396241110447733]}},
{"type":"Feature","properties":{"name":"Vezirtacı","place":"town"},"geometry":{"type":"Point","coordinates":[22.32937755732523,52.841114097317728]}},
{"type":"Feature","properties":{"name":"Ashoryan","place":"town"},"geometry":{"type":"Point","coordinates":[-2.66877187142477,41.558848140067731]}},
{"type":"Feature","properties":{"name":"Mızrakburnu","place":"town"},"geometry":{"type":"Point","coordinates":[27.942467402025219,56.46515051881773]}},
{"type":"Feature","properties":{"name":"Gökçekaya","place":"town"},"geometry":{"type":"Point","coordinates":[0.04578507985523,42.668129481117731]}},
{"type":"Feature","properties":{"name":"Nepharion","place":"town"},"geometry":null},
{"type":"Feature","properties":{"name":"Morro","place":"town"},"geometry":{"type":"Point","coordinates":[4.404184253385232,42.326467968577731]}},
{"type":"Feature","properties":{"name":"Boynuzvadisi","place":"town"},"geometry":{"type":"Point","coordinates":[7.735343961105228,36.961266473057734]}},
{"type":"Feature","properties":{"name":"Naerys'in Geçidi","place":"town"},"geometry":{"type":"Point","coordinates":[-3.28144644834477,41.739765475567729]}},
{"type":"Feature","properties":{"name":"Mundus","place":"town"},"geometry":{"type":"Point","coordinates":[31.214942805725233,58.77884822654773]}},
{"type":"Feature","properties":{"name":"Bronzşehir","place":"town"},"geometry":{"type":"Point","coordinates":[3.307100891025229,51.275819925177728]}},
{"type":"Feature","properties":{"name":"Kumtepe","place":"town"},"geometry":{"type":"Point","coordinates":[-5.53061790311477,42.140916555267729]}},
{"type":"Feature","properties":{"name":"Kızılçatal","place":"town"},"geometry":{"type":"Point","coordinates":[-1.24559245304477,35.641988522767733]}},
{"type":"Feature","properties":{"name":"Khoros","place":"town"},"geometry":null},
{"type":"Feature","properties":{"name":"Dûrgengreth","place":"town"},"geometry":{"type":"Point","coordinates":[2.949543614005229,52.79944209467773]}},
{"type":"Feature","properties":{"name":"Mangıroba","place":"town"},"geometry":{"type":"Point","coordinates":[2.69086353590523,51.800771246587729]}},
{"type":"Feature","properties":{"name":"Gürgenboru","place":"town"},"geometry":{"type":"Point","coordinates":[0.25957492156523,41.846199792077734]}},
{"type":"Feature","properties":{"name":"Kayınkökü","place":"town"},"geometry":{"type":"Point","coordinates":[-5.11788520562477,34.282171404647734]}},
{"type":"Feature","properties":{"name":"Tepehisar","place":"town"},"geometry":{"type":"Point","coordinates":[-9.788122703864767,43.101101635447733]}},
{"type":"Feature","properties":{"name":"Gümüşkoru","place":"town"},"geometry":{"type":"Point","coordinates":[0.64378459473523,42.121204501657729]}},
{"type":"Feature","properties":{"name":"Safirdüzü","place":"town"},"geometry":{"type":"Point","coordinates":[-4.34746294363477,35.562301407147729]}},
{"type":"Feature","properties":{"name":"Nilth","place":"town"},"geometry":null},
{"type":"Feature","properties":{"name":"Cemaatvadi","place":"town"},"geometry":{"type":"Point","coordinates":[-0.09912252095477,44.616721388567733]}},
{"type":"Feature","properties":{"name":"Asmarûn","place":"town"},"geometry":{"type":"Point","coordinates":[0.806097034455229,40.98190362346773]}},
{"type":"Feature","properties":{"name":"Dulsaray","place":"town"},"geometry":{"type":"Point","coordinates":[-4.220893270664769,36.340657161247734]}},
{"type":"Feature","properties":{"name":"Esthara","place":"town"},"geometry":{"type":"Point","coordinates":[11.580127070415227,41.039945121937734]}},
{"type":"Feature","properties":{"name":"Karakale","place":"town"},"geometry":{"type":"Point","coordinates":[0.69514620116523,45.896526297127728]}},
{"type":"Feature","properties":{"name":"Fıratköprü","place":"town"},"geometry":{"type":"Point","coordinates":[-6.653531891194769,38.700671879287732]}},
{"type":"Feature","properties":{"name":"Wyn","place":"town"},"geometry":{"type":"Point","coordinates":[11.785573496105226,42.902374414407731]}},
{"type":"Feature","properties":{"name":"Kralmezarı","place":"town"},"geometry":null},
{"type":"Feature","properties":{"name":"Domuzdüzü","place":"town"},"geometry":{"type":"Point","coordinates":[0.60709773301523,44.055786223577734]}}
]
}
